ONEWEB-0020             
1 45133U 20008C   24033.53343240  .00000325  00000+0  89535-3 0  9994
2 45133  87.8914 208.2101 0001407  86.2763 273.8525 13.10374724194977
ONEWEB-0021             
1 45134U 20008D   24033.54805252  .00000609  00000+0  17083-2 0  9995
2 45134  87.8913 208.2163 0001509  91.6745 268.4555 13.10373104195287
ONEWEB-0022             
1 45135U 20008E   24033.57149959 -.00000250  00000+0 -75352-3 0  9992
2 45135  87.8909 208.2296 0001442  78.9326 281.1963 13.10392187194982
ONEWEB-0023             
1 45136U 20008F   24033.56103462  .00000060  00000+0  13693-3 0  9998
2 45136  87.8909 208.2054 0001415 100.3396 259.7891 13.10370651194716
ONEWEB-0024             
1 45137U 20008G   24033.53179838  .00000207  00000+0  55778-3 0  9999
2 45137  87.8906 208.2127 0001627  93.5158 266.6155 13.10377073194871
ONEWEB-0025             
1 45138U 20008H   24033.54967881  .00000613  00000+0  17211-2 0  9994
2 45138  87.8911 208.2102 0001490  96.5514 263.5783 13.10371869195206
ONEWEB-0028             
1 45140U 20008K   24033.44986867 -.00000060  00000+0 -20519-3 0  9995
2 45140  87.8983 193.1795 0001863 114.7417 245.3905 13.11413929195150
